[
  {
    "nombre": "ISS (ZARYA)",
    "pais": "Internacional",
    "tamano_caida_kg": null,
    "material_principal": null,
    "fecha": "2025-07-25",
    "inclinacion_orbita": 51.64,
    "lugar_caida": {
      "lat": 45,
      "lon": -87
    },
    "imagen": null,
    "tle": "1 03145U 68014B   11018.33679383 -.00007350 +60653-5 +00000-0 0  9996\n2 03145 047.9216 051.8690 9174194 109.4430 352.9566 00.38858306057648"
  }
]
